alias,name,url,latitude,longitude,address1,address2,city,zip_code,state,phone
anise-pho-raleigh-4,Anise Pho,https://www.yelp.com/biz/anise-pho-raleigh-4?adjust_creative=QWil4J-UMmNJRdzdWiwCng&utm_campaign=yelp_api_v3&utm_medium=api_v3_business_search&utm_source=QWil4J-UMmNJRdzdWiwCng,35.7836251,-78.6471448,222 Glenwood Ave,Ste 113,Raleigh,27603,NC,+19198034539
jacks-seafood-and-soul-food-restaurant-raleigh,Jack's Seafood & Soul Food Restaurant,https://www.yelp.com/biz/jacks-seafood-and-soul-food-restaurant-raleigh?adjust_creative=QWil4J-UMmNJRdzdWiwCng&utm_campaign=yelp_api_v3&utm_medium=api_v3_business_search&utm_source=QWil4J-UMmNJRdzdWiwCng,35.7797355651855,-78.6163177490234,1516 New Bern Ave,,Raleigh,27610,NC,+19197551551
china-star-raleigh,China Star,https://www.yelp.com/biz/china-star-raleigh?adjust_creative=QWil4J-UMmNJRdzdWiwCng&utm_campaign=yelp_api_v3&utm_medium=api_v3_business_search&utm_source=QWil4J-UMmNJRdzdWiwCng,35.72443,-78.54819,6109 Rock Quarry Rd,Ste 110,Raleigh,27610,NC,+19199774678
shake-shack-cary,Shake Shack,https://www.yelp.com/biz/shake-shack-cary?adjust_creative=QWil4J-UMmNJRdzdWiwCng&utm_campaign=yelp_api_v3&utm_medium=api_v3_business_search&utm_source=QWil4J-UMmNJRdzdWiwCng,35.7396001866604,-78.7782829,310 Colonades Way,,Cary,27518,NC,
chubbys-tacos-raleigh,Chubby's Tacos,https://www.yelp.com/biz/chubbys-tacos-raleigh?adjust_creative=QWil4J-UMmNJRdzdWiwCng&utm_campaign=yelp_api_v3&utm_medium=api_v3_business_search&utm_source=QWil4J-UMmNJRdzdWiwCng,35.8171918,-78.6938651,2444 Wycliff Rd,,Raleigh,27607,NC,+19197814480
13-tacos-and-taps-raleigh,13 Tacos & Taps,https://www.yelp.com/biz/13-tacos-and-taps-raleigh?adjust_creative=QWil4J-UMmNJRdzdWiwCng&utm_campaign=yelp_api_v3&utm_medium=api_v3_business_search&utm_source=QWil4J-UMmNJRdzdWiwCng,35.9078384938597,-78.588276296571,10511 Shadowlawn Dr,,Raleigh,27614,NC,+19199007023
cava-raleigh-3,CAVA,https://www.yelp.com/biz/cava-raleigh-3?adjust_creative=QWil4J-UMmNJRdzdWiwCng&utm_campaign=yelp_api_v3&utm_medium=api_v3_business_search&utm_source=QWil4J-UMmNJRdzdWiwCng,35.82181,-78.62223,1100 Mercantile Dr,Ste 100,Raleigh,27609,NC,+19192764591
transfer-co-food-hall-raleigh,Transfer Co. Food Hall,https://www.yelp.com/biz/transfer-co-food-hall-raleigh?adjust_creative=QWil4J-UMmNJRdzdWiwCng&utm_campaign=yelp_api_v3&utm_medium=api_v3_business_search&utm_source=QWil4J-UMmNJRdzdWiwCng,35.7748799127717,-78.6320599168539,500 E Davie St,,Raleigh,27601,NC,+19842328122
gym-tacos-raleigh,Gym Tacos,https://www.yelp.com/biz/gym-tacos-raleigh?adjust_creative=QWil4J-UMmNJRdzdWiwCng&utm_campaign=yelp_api_v3&utm_medium=api_v3_business_search&utm_source=QWil4J-UMmNJRdzdWiwCng,35.82098,-78.6286,220 E Six Forks Rd,,Raleigh,27609,NC,
mama-crows-burger-and-salad-shop-raleigh,Mama Crow's Burger & Salad Shop,https://www.yelp.com/biz/mama-crows-burger-and-salad-shop-raleigh?adjust_creative=QWil4J-UMmNJRdzdWiwCng&utm_campaign=yelp_api_v3&utm_medium=api_v3_business_search&utm_source=QWil4J-UMmNJRdzdWiwCng,35.77496,-78.63216,500 E Davie St,,Raleigh,27601,NC,+19842328122
pdq-raleigh-raleigh,PDQ - Raleigh,https://www.yelp.com/biz/pdq-raleigh-raleigh?adjust_creative=QWil4J-UMmNJRdzdWiwCng&utm_campaign=yelp_api_v3&utm_medium=api_v3_business_search&utm_source=QWil4J-UMmNJRdzdWiwCng,35.86884,-78.6214,6305 Falls Of Neuse Rd,,Raleigh,27615,NC,+19198031171
morgan-street-food-hall-raleigh,Morgan Street Food Hall,https://www.yelp.com/biz/morgan-street-food-hall-raleigh?adjust_creative=QWil4J-UMmNJRdzdWiwCng&utm_campaign=yelp_api_v3&utm_medium=api_v3_business_search&utm_source=QWil4J-UMmNJRdzdWiwCng,35.77945,-78.64568,411 W Morgan St,,Raleigh,27603,NC,+19198342720
bartaco-north-hills-raleigh,bartaco North Hills,https://www.yelp.com/biz/bartaco-north-hills-raleigh?adjust_creative=QWil4J-UMmNJRdzdWiwCng&utm_campaign=yelp_api_v3&utm_medium=api_v3_business_search&utm_source=QWil4J-UMmNJRdzdWiwCng,35.8376358,-78.6426303,4121 Main At North Hills St,Ste 105,Raleigh,27609,NC,+19196268226
aggies-grill-station-raleigh,Aggie's Grill Station,https://www.yelp.com/biz/aggies-grill-station-raleigh?adjust_creative=QWil4J-UMmNJRdzdWiwCng&utm_campaign=yelp_api_v3&utm_medium=api_v3_business_search&utm_source=QWil4J-UMmNJRdzdWiwCng,35.822145,-78.591549,3027-101 Capital Blvd,,Raleigh,27604,NC,+19197906688
wilsons-eatery-raleigh,Wilson's Eatery,https://www.yelp.com/biz/wilsons-eatery-raleigh?adjust_creative=QWil4J-UMmNJRdzdWiwCng&utm_campaign=yelp_api_v3&utm_medium=api_v3_business_search&utm_source=QWil4J-UMmNJRdzdWiwCng,35.80871,-78.62125,1053 E Whitaker Mill Rd,,Raleigh,27604,NC,+19199775442
barone-meatball-company-raleigh,Barone Meatball Company,https://www.yelp.com/biz/barone-meatball-company-raleigh?adjust_creative=QWil4J-UMmNJRdzdWiwCng&utm_campaign=yelp_api_v3&utm_medium=api_v3_business_search&utm_source=QWil4J-UMmNJRdzdWiwCng,35.8861371,-78.6455475,,,Raleigh,27615,NC,+19192750625
alamo-drafthouse-cinema-raleigh-raleigh,Alamo Drafthouse Cinema Raleigh,https://www.yelp.com/biz/alamo-drafthouse-cinema-raleigh-raleigh?adjust_creative=QWil4J-UMmNJRdzdWiwCng&utm_campaign=yelp_api_v3&utm_medium=api_v3_business_search&utm_source=QWil4J-UMmNJRdzdWiwCng,35.7795751,-78.6048387,2116-D New Bern Ave,,Raleigh,27610,NC,+19844446620
wicked-links-raleigh,Wicked Links,https://www.yelp.com/biz/wicked-links-raleigh?adjust_creative=QWil4J-UMmNJRdzdWiwCng&utm_campaign=yelp_api_v3&utm_medium=api_v3_business_search&utm_source=QWil4J-UMmNJRdzdWiwCng,35.8691331406762,-78.7182016600349,4831 Grove Barton Rd,,Raleigh,27613,NC,+19194120888
ole-time-barbecue-raleigh-2,Ole Time Barbecue,https://www.yelp.com/biz/ole-time-barbecue-raleigh-2?adjust_creative=QWil4J-UMmNJRdzdWiwCng&utm_campaign=yelp_api_v3&utm_medium=api_v3_business_search&utm_source=QWil4J-UMmNJRdzdWiwCng,35.78733,-78.73877,6309 Hillsborough St,,Raleigh,27606,NC,+19198592544
mr-as-beignets-apex-2,Mr. A's Beignets,https://www.yelp.com/biz/mr-as-beignets-apex-2?adjust_creative=QWil4J-UMmNJRdzdWiwCng&utm_campaign=yelp_api_v3&utm_medium=api_v3_business_search&utm_source=QWil4J-UMmNJRdzdWiwCng,35.734613,-78.849109,400 N Salem St,,Apex,27502,NC,+19196249209
the-simple-greek-raleigh-2,The Simple Greek,https://www.yelp.com/biz/the-simple-greek-raleigh-2?adjust_creative=QWil4J-UMmNJRdzdWiwCng&utm_campaign=yelp_api_v3&utm_medium=api_v3_business_search&utm_source=QWil4J-UMmNJRdzdWiwCng,35.812643,-78.626931,2320 Bale St,Ste 100,Raleigh,27608,NC,+19193220977
house-of-hops-raleigh-2,House of Hops,https://www.yelp.com/biz/house-of-hops-raleigh-2?adjust_creative=QWil4J-UMmNJRdzdWiwCng&utm_campaign=yelp_api_v3&utm_medium=api_v3_business_search&utm_source=QWil4J-UMmNJRdzdWiwCng,35.86287,-78.71372,6909 Glenwood Ave,Ste 100,Raleigh,27612,NC,+19193078870
zanyu-asian-noodles-raleigh,Zanyu Asian Noodles,https://www.yelp.com/biz/zanyu-asian-noodles-raleigh?adjust_creative=QWil4J-UMmNJRdzdWiwCng&utm_campaign=yelp_api_v3&utm_medium=api_v3_business_search&utm_source=QWil4J-UMmNJRdzdWiwCng,35.8960824,-78.6224851,8450 Honeycutt Rd,,Raleigh,27615,NC,+19198031340
cary-crab-house-cary,Cary Crab House,https://www.yelp.com/biz/cary-crab-house-cary?adjust_creative=QWil4J-UMmNJRdzdWiwCng&utm_campaign=yelp_api_v3&utm_medium=api_v3_business_search&utm_source=QWil4J-UMmNJRdzdWiwCng,35.759726,-78.740603,220 Crossroads Blvd,Ste 2460,Cary,27518,NC,+19199250401
wegmans-raleigh,Wegmans,https://www.yelp.com/biz/wegmans-raleigh?adjust_creative=QWil4J-UMmNJRdzdWiwCng&utm_campaign=yelp_api_v3&utm_medium=api_v3_business_search&utm_source=QWil4J-UMmNJRdzdWiwCng,35.823107,-78.622541,1200 Wake Towne Dr,,Raleigh,27609,NC,+19849605600
bad-daddys-burger-bar-raleigh-raleigh,Bad Daddy's Burger Bar - Raleigh,https://www.yelp.com/biz/bad-daddys-burger-bar-raleigh-raleigh?adjust_creative=QWil4J-UMmNJRdzdWiwCng&utm_campaign=yelp_api_v3&utm_medium=api_v3_business_search&utm_source=QWil4J-UMmNJRdzdWiwCng,35.7885257790867,-78.6398015538498,111 Seaboard Ave,,Raleigh,27604,NC,+19197479163
brewery-bhavana-raleigh,Brewery Bhavana,https://www.yelp.com/biz/brewery-bhavana-raleigh?adjust_creative=QWil4J-UMmNJRdzdWiwCng&utm_campaign=yelp_api_v3&utm_medium=api_v3_business_search&utm_source=QWil4J-UMmNJRdzdWiwCng,35.777406,-78.636914,218 S Blount St,,Raleigh,27601,NC,+19198299998
tastefully-served-raleigh,Tastefully Served,https://www.yelp.com/biz/tastefully-served-raleigh?adjust_creative=QWil4J-UMmNJRdzdWiwCng&utm_campaign=yelp_api_v3&utm_medium=api_v3_business_search&utm_source=QWil4J-UMmNJRdzdWiwCng,35.8885725980012,-78.6796115750858,7474 Creedmoor Rd,,Raleigh,27615,NC,+19197605134
the-kitchen-table-at-relish-raleigh,The Kitchen Table at Relish,https://www.yelp.com/biz/the-kitchen-table-at-relish-raleigh?adjust_creative=QWil4J-UMmNJRdzdWiwCng&utm_campaign=yelp_api_v3&utm_medium=api_v3_business_search&utm_source=QWil4J-UMmNJRdzdWiwCng,35.85852667,-78.68215,5629 Creedmoor Rd,,Raleigh,27612,NC,+19197871855
cook-out-raleigh-3,Cook Out,https://www.yelp.com/biz/cook-out-raleigh-3?adjust_creative=QWil4J-UMmNJRdzdWiwCng&utm_campaign=yelp_api_v3&utm_medium=api_v3_business_search&utm_source=QWil4J-UMmNJRdzdWiwCng,35.78482,-78.69305,3930 Western Blvd,,Raleigh,27606,NC,+19198212926
stir-raleigh,STIR,https://www.yelp.com/biz/stir-raleigh?adjust_creative=QWil4J-UMmNJRdzdWiwCng&utm_campaign=yelp_api_v3&utm_medium=api_v3_business_search&utm_source=QWil4J-UMmNJRdzdWiwCng,35.83798,-78.640714,4242 Six Forks Rd,"Bank of America Bldg, Ste 100",Raleigh,27609,NC,+19842008614
cowbar-burgers-and-fries-raleigh,CowBar Burgers & Fries,https://www.yelp.com/biz/cowbar-burgers-and-fries-raleigh?adjust_creative=QWil4J-UMmNJRdzdWiwCng&utm_campaign=yelp_api_v3&utm_medium=api_v3_business_search&utm_source=QWil4J-UMmNJRdzdWiwCng,35.77945,-78.64568,411 W Morgan St,Morgan Street Food Hall,Raleigh,27603,NC,+19198342720
taste-raleigh-10,Taste,https://www.yelp.com/biz/taste-raleigh-10?adjust_creative=QWil4J-UMmNJRdzdWiwCng&utm_campaign=yelp_api_v3&utm_medium=api_v3_business_search&utm_source=QWil4J-UMmNJRdzdWiwCng,35.807601,-78.630418,1912 Bernard St,,Raleigh,27608,NC,+19193220568
daddy-bobs-barbeque-raleigh-2,Daddy Bob's Barbeque,https://www.yelp.com/biz/daddy-bobs-barbeque-raleigh-2?adjust_creative=QWil4J-UMmNJRdzdWiwCng&utm_campaign=yelp_api_v3&utm_medium=api_v3_business_search&utm_source=QWil4J-UMmNJRdzdWiwCng,35.7743,-78.63819,,,Raleigh,27601,NC,+13363379546
the-cortez-raleigh,The Cortez,https://www.yelp.com/biz/the-cortez-raleigh?adjust_creative=QWil4J-UMmNJRdzdWiwCng&utm_campaign=yelp_api_v3&utm_medium=api_v3_business_search&utm_source=QWil4J-UMmNJRdzdWiwCng,35.78555,-78.64776,413 Glenwood Ave,,Raleigh,27603,NC,+19193428227
afghan-kabab-raleigh-3,Afghan Kabab,https://www.yelp.com/biz/afghan-kabab-raleigh-3?adjust_creative=QWil4J-UMmNJRdzdWiwCng&utm_campaign=yelp_api_v3&utm_medium=api_v3_business_search&utm_source=QWil4J-UMmNJRdzdWiwCng,35.78394,-78.69264667,3933 Western Blvd,,Raleigh,27606,NC,+19197030004
metro-diner-raleigh-4,Metro Diner,https://www.yelp.com/biz/metro-diner-raleigh-4?adjust_creative=QWil4J-UMmNJRdzdWiwCng&utm_campaign=yelp_api_v3&utm_medium=api_v3_business_search&utm_source=QWil4J-UMmNJRdzdWiwCng,35.870169,-78.622533,6325 Falls Of Neuse Rd,,Raleigh,27615,NC,+19195789053
chido-taco-raleigh,Chido Taco,https://www.yelp.com/biz/chido-taco-raleigh?adjust_creative=QWil4J-UMmNJRdzdWiwCng&utm_campaign=yelp_api_v3&utm_medium=api_v3_business_search&utm_source=QWil4J-UMmNJRdzdWiwCng,35.8089866638184,-78.630859375,2330 Bale St,Ste 100,Raleigh,27608,NC,+19195941930
neuse-river-brewing-company-raleigh-4,Neuse River Brewing Company,https://www.yelp.com/biz/neuse-river-brewing-company-raleigh-4?adjust_creative=QWil4J-UMmNJRdzdWiwCng&utm_campaign=yelp_api_v3&utm_medium=api_v3_business_search&utm_source=QWil4J-UMmNJRdzdWiwCng,35.8041774,-78.6328332,518 Pershing Rd,Ste 100,Raleigh,27608,NC,+19842328479
tropical-smoothie-cafe-raleigh-6,Tropical Smoothie Cafe,https://www.yelp.com/biz/tropical-smoothie-cafe-raleigh-6?adjust_creative=QWil4J-UMmNJRdzdWiwCng&utm_campaign=yelp_api_v3&utm_medium=api_v3_business_search&utm_source=QWil4J-UMmNJRdzdWiwCng,35.8746633507237,-78.6233667741988,6679 Falls Of Neuse Rd,,Raleigh,27615,NC,+19198792233
clean-eatz-raleigh-raleigh-3,Clean Eatz - Raleigh,https://www.yelp.com/biz/clean-eatz-raleigh-raleigh-3?adjust_creative=QWil4J-UMmNJRdzdWiwCng&utm_campaign=yelp_api_v3&utm_medium=api_v3_business_search&utm_source=QWil4J-UMmNJRdzdWiwCng,35.881861,-78.6462608,7461 Six Forks Rd,,Raleigh,27615,NC,+19197483770
coco-bongo-raleigh,Coco Bongo,https://www.yelp.com/biz/coco-bongo-raleigh?adjust_creative=QWil4J-UMmNJRdzdWiwCng&utm_campaign=yelp_api_v3&utm_medium=api_v3_business_search&utm_source=QWil4J-UMmNJRdzdWiwCng,35.7876528043631,-78.6671346301312,2400 Hillsborough St,,Raleigh,27607,NC,+19842420898
poke-burri-raleigh-raleigh,Poke Burri Raleigh,https://www.yelp.com/biz/poke-burri-raleigh-raleigh?adjust_creative=QWil4J-UMmNJRdzdWiwCng&utm_campaign=yelp_api_v3&utm_medium=api_v3_business_search&utm_source=QWil4J-UMmNJRdzdWiwCng,35.8731553,-78.6225222,6613 Falls Of Neuse Rd,,Raleigh,27615,NC,+19196154016
co-raleigh,CO,https://www.yelp.com/biz/co-raleigh?adjust_creative=QWil4J-UMmNJRdzdWiwCng&utm_campaign=yelp_api_v3&utm_medium=api_v3_business_search&utm_source=QWil4J-UMmNJRdzdWiwCng,35.8384475,-78.640407,101 Park At N Hills St,,Raleigh,27609,NC,+19192582070
benchwarmers-bagels-and-coffee-raleigh,Benchwarmers Bagels & Coffee,https://www.yelp.com/biz/benchwarmers-bagels-and-coffee-raleigh?adjust_creative=QWil4J-UMmNJRdzdWiwCng&utm_campaign=yelp_api_v3&utm_medium=api_v3_business_search&utm_source=QWil4J-UMmNJRdzdWiwCng,35.7748861834798,-78.6321250462267,500 E Davie St,,Raleigh,27601,NC,
the-mac-house-raleigh,The Mac House,https://www.yelp.com/biz/the-mac-house-raleigh?adjust_creative=QWil4J-UMmNJRdzdWiwCng&utm_campaign=yelp_api_v3&utm_medium=api_v3_business_search&utm_source=QWil4J-UMmNJRdzdWiwCng,35.9428161271024,-78.5429981363821,14460 Falls Of Neuse Rd,Ste 167,Raleigh,27614,NC,+19192638116
guasaca-raleigh,Guasaca,https://www.yelp.com/biz/guasaca-raleigh?adjust_creative=QWil4J-UMmNJRdzdWiwCng&utm_campaign=yelp_api_v3&utm_medium=api_v3_business_search&utm_source=QWil4J-UMmNJRdzdWiwCng,35.814575,-78.697036,4025 Lake Boone Trl,Ste 107,Raleigh,27607,NC,+19193224928
salt-and-lime-cabo-grill-raleigh,Salt & Lime Cabo Grill,https://www.yelp.com/biz/salt-and-lime-cabo-grill-raleigh?adjust_creative=QWil4J-UMmNJRdzdWiwCng&utm_campaign=yelp_api_v3&utm_medium=api_v3_business_search&utm_source=QWil4J-UMmNJRdzdWiwCng,35.8650954206401,-78.6191403403193,6006 Falls Of Neuse Rd,,Raleigh,27609,NC,+19198722230
cape-fear-seafood-company-raleigh,Cape Fear Seafood Company,https://www.yelp.com/biz/cape-fear-seafood-company-raleigh?adjust_creative=QWil4J-UMmNJRdzdWiwCng&utm_campaign=yelp_api_v3&utm_medium=api_v3_business_search&utm_source=QWil4J-UMmNJRdzdWiwCng,35.866283530189,-78.6225843429565,832 Spring Forest Rd,,Raleigh,27609,NC,+19842424600
sushi-mon-raleigh,Sushi Mon,https://www.yelp.com/biz/sushi-mon-raleigh?adjust_creative=QWil4J-UMmNJRdzdWiwCng&utm_campaign=yelp_api_v3&utm_medium=api_v3_business_search&utm_source=QWil4J-UMmNJRdzdWiwCng,35.78902,-78.67589,105 Friendly Dr,Ste 101,Raleigh,27607,NC,+19193220002
shake-shack-charlotte-2,Shake Shack,https://www.yelp.com/biz/shake-shack-charlotte-2?adjust_creative=QWil4J-UMmNJRdzdWiwCng&utm_campaign=yelp_api_v3&utm_medium=api_v3_business_search&utm_source=QWil4J-UMmNJRdzdWiwCng,35.1727511337797,-80.8493591610833,1605 E Woodlawn Rd,,Charlotte,28209,NC,+19802653188
magnolias-poboys-charlotte-3,Magnolia's Poboys,https://www.yelp.com/biz/magnolias-poboys-charlotte-3?adjust_creative=QWil4J-UMmNJRdzdWiwCng&utm_campaign=yelp_api_v3&utm_medium=api_v3_business_search&utm_source=QWil4J-UMmNJRdzdWiwCng,35.16932,-80.79564,,,Charlotte,28211,NC,+17049897511
ace-no-3-charlotte,Ace No 3,https://www.yelp.com/biz/ace-no-3-charlotte?adjust_creative=QWil4J-UMmNJRdzdWiwCng&utm_campaign=yelp_api_v3&utm_medium=api_v3_business_search&utm_source=QWil4J-UMmNJRdzdWiwCng,35.227885,-80.820951,1001 Belmont Ave,,Charlotte,28205,NC,+17049102200
bang-bang-burgers-charlotte-2,Bang Bang Burgers,https://www.yelp.com/biz/bang-bang-burgers-charlotte-2?adjust_creative=QWil4J-UMmNJRdzdWiwCng&utm_campaign=yelp_api_v3&utm_medium=api_v3_business_search&utm_source=QWil4J-UMmNJRdzdWiwCng,35.2123718,-80.8172607,2001 E 7th St,Ste D,Charlotte,28204,NC,+17043754505
tamales-la-pasadita-charlotte,Tamales La Pasadita,https://www.yelp.com/biz/tamales-la-pasadita-charlotte?adjust_creative=QWil4J-UMmNJRdzdWiwCng&utm_campaign=yelp_api_v3&utm_medium=api_v3_business_search&utm_source=QWil4J-UMmNJRdzdWiwCng,35.2391374663525,-80.7983152782463,3112 The Plz,,Charlotte,28205,NC,+17048308189
link-and-pin-charlotte,Link & Pin,https://www.yelp.com/biz/link-and-pin-charlotte?adjust_creative=QWil4J-UMmNJRdzdWiwCng&utm_campaign=yelp_api_v3&utm_medium=api_v3_business_search&utm_source=QWil4J-UMmNJRdzdWiwCng,35.199198,-80.867991,155 New Bern St,,Charlotte,28203,NC,+19809391188
the-tasty-bowl-subs-n-such-charlotte-2,The Tasty Bowl Subs N Such,https://www.yelp.com/biz/the-tasty-bowl-subs-n-such-charlotte-2?adjust_creative=QWil4J-UMmNJRdzdWiwCng&utm_campaign=yelp_api_v3&utm_medium=api_v3_business_search&utm_source=QWil4J-UMmNJRdzdWiwCng,35.13293,-80.95286,2900 Westinghouse Blvd,Ste 116,Charlotte,28273,NC,+19802376006
metro-diner-charlotte,Metro Diner,https://www.yelp.com/biz/metro-diner-charlotte?adjust_creative=QWil4J-UMmNJRdzdWiwCng&utm_campaign=yelp_api_v3&utm_medium=api_v3_business_search&utm_source=QWil4J-UMmNJRdzdWiwCng,35.0883799489168,-80.8605643598023,8334 Pineville-Matthews Rd,Ste 110,Charlotte,28226,NC,+19802159961
taco-mama-dilworth-charlotte,Taco Mama - Dilworth,https://www.yelp.com/biz/taco-mama-dilworth-charlotte?adjust_creative=QWil4J-UMmNJRdzdWiwCng&utm_campaign=yelp_api_v3&utm_medium=api_v3_business_search&utm_source=QWil4J-UMmNJRdzdWiwCng,35.197208,-80.851952,2452 Park Rd,Ste C,Charlotte,28203,NC,+17049002470
taste-of-shu-authentic-szechuan-cuisine-charlotte,Taste of SHU: Authentic Szechuan Cuisine,https://www.yelp.com/biz/taste-of-shu-authentic-szechuan-cuisine-charlotte?adjust_creative=QWil4J-UMmNJRdzdWiwCng&utm_campaign=yelp_api_v3&utm_medium=api_v3_business_search&utm_source=QWil4J-UMmNJRdzdWiwCng,35.117247,-80.856835,8418 Park Rd,,Charlotte,28210,NC,+17043156989
las-meras-tortas-charlotte-2,Las Meras Tortas,https://www.yelp.com/biz/las-meras-tortas-charlotte-2?adjust_creative=QWil4J-UMmNJRdzdWiwCng&utm_campaign=yelp_api_v3&utm_medium=api_v3_business_search&utm_source=QWil4J-UMmNJRdzdWiwCng,35.2040710449219,-80.73828125,5661 Farm Pond Ln,,Charlotte,28212,NC,+17045630071
iron-dish-korean-bbq-charlotte-2,Iron Dish Korean BBQ,https://www.yelp.com/biz/iron-dish-korean-bbq-charlotte-2?adjust_creative=QWil4J-UMmNJRdzdWiwCng&utm_campaign=yelp_api_v3&utm_medium=api_v3_business_search&utm_source=QWil4J-UMmNJRdzdWiwCng,35.317192,-80.740168,9605 N Tryon St,Ste H,Charlotte,28262,NC,+19802257378
the-broken-spoke-charlotte,The Broken Spoke,https://www.yelp.com/biz/the-broken-spoke-charlotte?adjust_creative=QWil4J-UMmNJRdzdWiwCng&utm_campaign=yelp_api_v3&utm_medium=api_v3_business_search&utm_source=QWil4J-UMmNJRdzdWiwCng,35.18604,-80.8816,227 Southside Dr,,Charlotte,28217,NC,+17044699540
hello-chicken-charlotte,Hello Chicken,https://www.yelp.com/biz/hello-chicken-charlotte?adjust_creative=QWil4J-UMmNJRdzdWiwCng&utm_campaign=yelp_api_v3&utm_medium=api_v3_business_search&utm_source=QWil4J-UMmNJRdzdWiwCng,35.08952,-80.86628,8700 Pineville-Matthews Rd,,Charlotte,28210,NC,+17047707475
zacks-hamburgers-charlotte,Zack's Hamburgers,https://www.yelp.com/biz/zacks-hamburgers-charlotte?adjust_creative=QWil4J-UMmNJRdzdWiwCng&utm_campaign=yelp_api_v3&utm_medium=api_v3_business_search&utm_source=QWil4J-UMmNJRdzdWiwCng,35.18822,-80.8750699,4009 South Blvd,,Charlotte,28209,NC,+17045251720
midnight-diner-charlotte,Midnight Diner,https://www.yelp.com/biz/midnight-diner-charlotte?adjust_creative=QWil4J-UMmNJRdzdWiwCng&utm_campaign=yelp_api_v3&utm_medium=api_v3_business_search&utm_source=QWil4J-UMmNJRdzdWiwCng,35.2195687,-80.852309,115 E Carson Blvd,,Charlotte,28203,NC,+19802073641
nothing-but-noodles-charlotte-6,Nothing but Noodles,https://www.yelp.com/biz/nothing-but-noodles-charlotte-6?adjust_creative=QWil4J-UMmNJRdzdWiwCng&utm_campaign=yelp_api_v3&utm_medium=api_v3_business_search&utm_source=QWil4J-UMmNJRdzdWiwCng,35.105548,-80.986323,12740 S Tryon St,Ste 100,Charlotte,28273,NC,+19804982880
culvers-charlotte,Culver's,https://www.yelp.com/biz/culvers-charlotte?adjust_creative=QWil4J-UMmNJRdzdWiwCng&utm_campaign=yelp_api_v3&utm_medium=api_v3_business_search&utm_source=QWil4J-UMmNJRdzdWiwCng,35.29029,-80.76028,7031 University City Blvd,,Charlotte,28262,NC,+19803487611
optimist-hall-charlotte-3,Optimist Hall,https://www.yelp.com/biz/optimist-hall-charlotte-3?adjust_creative=QWil4J-UMmNJRdzdWiwCng&utm_campaign=yelp_api_v3&utm_medium=api_v3_business_search&utm_source=QWil4J-UMmNJRdzdWiwCng,35.2339090888845,-80.8276032283902,1115 N Brevard St,,Charlotte,28206,NC,+14045372766
the-dumpling-lady-charlotte,The Dumpling Lady,https://www.yelp.com/biz/the-dumpling-lady-charlotte?adjust_creative=QWil4J-UMmNJRdzdWiwCng&utm_campaign=yelp_api_v3&utm_medium=api_v3_business_search&utm_source=QWil4J-UMmNJRdzdWiwCng,35.2330903,-80.8279821,1115 N Brevard St,,Charlotte,28206,NC,+19804068461
lets-meat-kbbq-charlotte,Let's Meat Kbbq,https://www.yelp.com/biz/lets-meat-kbbq-charlotte?adjust_creative=QWil4J-UMmNJRdzdWiwCng&utm_campaign=yelp_api_v3&utm_medium=api_v3_business_search&utm_source=QWil4J-UMmNJRdzdWiwCng,35.2190478214665,-80.8576791733503,1400 S Church St,Ste B,Charlotte,28203,NC,+19802994389
pinkys-westside-grill-charlotte,Pinky's Westside Grill,https://www.yelp.com/biz/pinkys-westside-grill-charlotte?adjust_creative=QWil4J-UMmNJRdzdWiwCng&utm_campaign=yelp_api_v3&utm_medium=api_v3_business_search&utm_source=QWil4J-UMmNJRdzdWiwCng,35.22912,-80.86738,1600 W Morehead St,,Charlotte,28208,NC,+17043320402
superica-charlotte-5,Superica,https://www.yelp.com/biz/superica-charlotte-5?adjust_creative=QWil4J-UMmNJRdzdWiwCng&utm_campaign=yelp_api_v3&utm_medium=api_v3_business_search&utm_source=QWil4J-UMmNJRdzdWiwCng,35.2118515861033,-80.8604252346183,101 W Worthington Ave,,Charlotte,28203,NC,+19803219914
the-habit-burger-grill-charlotte-2,The Habit Burger Grill,https://www.yelp.com/biz/the-habit-burger-grill-charlotte-2?adjust_creative=QWil4J-UMmNJRdzdWiwCng&utm_campaign=yelp_api_v3&utm_medium=api_v3_business_search&utm_source=QWil4J-UMmNJRdzdWiwCng,35.214399,-80.833366,209 S Kings Dr,Ste 103,Charlotte,28204,NC,+19802731760
harris-teeter-charlotte-4,Harris Teeter,https://www.yelp.com/biz/harris-teeter-charlotte-4?adjust_creative=QWil4J-UMmNJRdzdWiwCng&utm_campaign=yelp_api_v3&utm_medium=api_v3_business_search&utm_source=QWil4J-UMmNJRdzdWiwCng,35.152746,-80.826869,6701 Morrison Blvd,,Charlotte,28211,NC,+17043641245
crafty-crab-charlotte,Crafty Crab,https://www.yelp.com/biz/crafty-crab-charlotte?adjust_creative=QWil4J-UMmNJRdzdWiwCng&utm_campaign=yelp_api_v3&utm_medium=api_v3_business_search&utm_source=QWil4J-UMmNJRdzdWiwCng,35.30985,-80.7488,8933 J M Keynes Dr,,Charlotte,28262,NC,+19809995111
the-nappy-chef-charlotte,The Nappy Chef,https://www.yelp.com/biz/the-nappy-chef-charlotte?adjust_creative=QWil4J-UMmNJRdzdWiwCng&utm_campaign=yelp_api_v3&utm_medium=api_v3_business_search&utm_source=QWil4J-UMmNJRdzdWiwCng,35.203925,-80.744075,5933 Albermarle Rd,,Charlotte,28212,NC,+19802197478
the-crab-cracker-charlotte,The Crab Cracker,https://www.yelp.com/biz/the-crab-cracker-charlotte?adjust_creative=QWil4J-UMmNJRdzdWiwCng&utm_campaign=yelp_api_v3&utm_medium=api_v3_business_search&utm_source=QWil4J-UMmNJRdzdWiwCng,35.29669467,-80.73782683,8640 University City Blvd,Ste A1,Charlotte,28213,NC,+19803350366
street-spice-charlotte,Street Spice,https://www.yelp.com/biz/street-spice-charlotte?adjust_creative=QWil4J-UMmNJRdzdWiwCng&utm_campaign=yelp_api_v3&utm_medium=api_v3_business_search&utm_source=QWil4J-UMmNJRdzdWiwCng,35.1715087890625,-80.9071197509766,,,Charlotte,28217,NC,+17042078812
philly-corner-charlotte-2,Philly Corner,https://www.yelp.com/biz/philly-corner-charlotte-2?adjust_creative=QWil4J-UMmNJRdzdWiwCng&utm_campaign=yelp_api_v3&utm_medium=api_v3_business_search&utm_source=QWil4J-UMmNJRdzdWiwCng,35.3397759,-80.8340405,8535 Hankins Rd,,Charlotte,28269,NC,+17045095959
sabor-latin-street-grill-charlotte-6,Sabor Latin Street Grill,https://www.yelp.com/biz/sabor-latin-street-grill-charlotte-6?adjust_creative=QWil4J-UMmNJRdzdWiwCng&utm_campaign=yelp_api_v3&utm_medium=api_v3_business_search&utm_source=QWil4J-UMmNJRdzdWiwCng,35.2162131,-80.8216897,415 Hawthorne Ln,,Charlotte,28204,NC,+19802370308
king-crab-charlotte,King Crab,https://www.yelp.com/biz/king-crab-charlotte?adjust_creative=QWil4J-UMmNJRdzdWiwCng&utm_campaign=yelp_api_v3&utm_medium=api_v3_business_search&utm_source=QWil4J-UMmNJRdzdWiwCng,35.1617812375807,-80.7377683371305,7401 E Independence Blvd,,Charlotte,28227,NC,+19802990029
inizio-pizza-napoletana-charlotte-2,Inizio Pizza Napoletana,https://www.yelp.com/biz/inizio-pizza-napoletana-charlotte-2?adjust_creative=QWil4J-UMmNJRdzdWiwCng&utm_campaign=yelp_api_v3&utm_medium=api_v3_business_search&utm_source=QWil4J-UMmNJRdzdWiwCng,35.1993337,-80.8521708,2230 Park Rd,Ste 101,Charlotte,28203,NC,+17049000929
peppervine-charlotte-4,Peppervine,https://www.yelp.com/biz/peppervine-charlotte-4?adjust_creative=QWil4J-UMmNJRdzdWiwCng&utm_campaign=yelp_api_v3&utm_medium=api_v3_business_search&utm_source=QWil4J-UMmNJRdzdWiwCng,35.15285,-80.84046,4620 Piedmont Row Dr,Ste 170B,Charlotte,28210,NC,+19802832333
jp-food-to-go-charlotte,JP Food To Go,https://www.yelp.com/biz/jp-food-to-go-charlotte?adjust_creative=QWil4J-UMmNJRdzdWiwCng&utm_campaign=yelp_api_v3&utm_medium=api_v3_business_search&utm_source=QWil4J-UMmNJRdzdWiwCng,35.2432675034666,-80.9382414706998,2626 Little Rock Rd,,Charlotte,28214,NC,+17049537765
mama-gees-takeout-restaurant-charlotte,Mama Gee's Takeout Restaurant,https://www.yelp.com/biz/mama-gees-takeout-restaurant-charlotte?adjust_creative=QWil4J-UMmNJRdzdWiwCng&utm_campaign=yelp_api_v3&utm_medium=api_v3_business_search&utm_source=QWil4J-UMmNJRdzdWiwCng,35.2472305,-80.8571091,509 Beatties Ford Rd,,Charlotte,28216,NC,+17048178732
hawkers-asian-street-fare-charlotte,Hawkers Asian Street Fare,https://www.yelp.com/biz/hawkers-asian-street-fare-charlotte?adjust_creative=QWil4J-UMmNJRdzdWiwCng&utm_campaign=yelp_api_v3&utm_medium=api_v3_business_search&utm_source=QWil4J-UMmNJRdzdWiwCng,35.21127,-80.86076,1930 Camden Rd,Ste 260,Charlotte,28203,NC,+17044640770
no-forks-given-charlotte,No Forks Given,https://www.yelp.com/biz/no-forks-given-charlotte?adjust_creative=QWil4J-UMmNJRdzdWiwCng&utm_campaign=yelp_api_v3&utm_medium=api_v3_business_search&utm_source=QWil4J-UMmNJRdzdWiwCng,35.1691017150879,-80.8476333618164,,,Charlotte,28209,NC,+17049157092
que-onda-tacos-tequila-charlotte-11,Que Onda Tacos + Tequila,https://www.yelp.com/biz/que-onda-tacos-tequila-charlotte-11?adjust_creative=QWil4J-UMmNJRdzdWiwCng&utm_campaign=yelp_api_v3&utm_medium=api_v3_business_search&utm_source=QWil4J-UMmNJRdzdWiwCng,35.22889,-80.84578,333 W Trade St,Ste 101,Charlotte,28202,NC,+19802562538
chili-man-charlotte,Chili Man,https://www.yelp.com/biz/chili-man-charlotte?adjust_creative=QWil4J-UMmNJRdzdWiwCng&utm_campaign=yelp_api_v3&utm_medium=api_v3_business_search&utm_source=QWil4J-UMmNJRdzdWiwCng,35.226911,-80.843823,S Tryon,,Charlotte,28202,NC,+17048069941
mal-pan-charlotte-2,Mal Pan,https://www.yelp.com/biz/mal-pan-charlotte-2?adjust_creative=QWil4J-UMmNJRdzdWiwCng&utm_campaign=yelp_api_v3&utm_medium=api_v3_business_search&utm_source=QWil4J-UMmNJRdzdWiwCng,35.152788,-80.839302,4625 Piedmont Row Dr,Ste 115-D,Charlotte,28210,NC,+19802986138
be-em-asian-kitchen-charlotte,Be-Em Asian Kitchen,https://www.yelp.com/biz/be-em-asian-kitchen-charlotte?adjust_creative=QWil4J-UMmNJRdzdWiwCng&utm_campaign=yelp_api_v3&utm_medium=api_v3_business_search&utm_source=QWil4J-UMmNJRdzdWiwCng,35.138119345084,-80.7345575023773,1848 Galleria Blvd,Ste K,Charlotte,28270,NC,+17047084793
cava-charlotte-9,CAVA,https://www.yelp.com/biz/cava-charlotte-9?adjust_creative=QWil4J-UMmNJRdzdWiwCng&utm_campaign=yelp_api_v3&utm_medium=api_v3_business_search&utm_source=QWil4J-UMmNJRdzdWiwCng,35.17345,-80.85006,4267 Park Rd,,Charlotte,28209,NC,+17042094124
culvers-indian-trail,Culver's,https://www.yelp.com/biz/culvers-indian-trail?adjust_creative=QWil4J-UMmNJRdzdWiwCng&utm_campaign=yelp_api_v3&utm_medium=api_v3_business_search&utm_source=QWil4J-UMmNJRdzdWiwCng,35.0468,-80.6437,5122 Old Charlotte Hwy,,Indian Trail,28079,NC,+19803138000
snooze-an-a-m-eatery-charlotte,"Snooze, an A.M. Eatery",https://www.yelp.com/biz/snooze-an-a-m-eatery-charlotte?adjust_creative=QWil4J-UMmNJRdzdWiwCng&utm_campaign=yelp_api_v3&utm_medium=api_v3_business_search&utm_source=QWil4J-UMmNJRdzdWiwCng,35.221098,-80.81552,1331 Central Ave,Ste 100,Charlotte,28205,NC,+19802435070
bachi-charlotte,Bachi,https://www.yelp.com/biz/bachi-charlotte?adjust_creative=QWil4J-UMmNJRdzdWiwCng&utm_campaign=yelp_api_v3&utm_medium=api_v3_business_search&utm_source=QWil4J-UMmNJRdzdWiwCng,35.34128,-80.76517,2700 W Mallard Creek Church Rd,Ste 200,Charlotte,28262,NC,+19808197761
viva-chicken-charlotte,Viva Chicken,https://www.yelp.com/biz/viva-chicken-charlotte?adjust_creative=QWil4J-UMmNJRdzdWiwCng&utm_campaign=yelp_api_v3&utm_medium=api_v3_business_search&utm_source=QWil4J-UMmNJRdzdWiwCng,35.2134205994406,-80.8260224009839,1617 Elizabeth Ave,,Charlotte,28204,NC,+19803350176
gyu-kaku-japanese-bbq-charlotte,Gyu-Kaku Japanese BBQ,https://www.yelp.com/biz/gyu-kaku-japanese-bbq-charlotte?adjust_creative=QWil4J-UMmNJRdzdWiwCng&utm_campaign=yelp_api_v3&utm_medium=api_v3_business_search&utm_source=QWil4J-UMmNJRdzdWiwCng,35.218238,-80.843123,650 East Stonewall St,,Charlotte,28202,NC,+19805853012
soul-central-charlotte-2,Soul Central,https://www.yelp.com/biz/soul-central-charlotte-2?adjust_creative=QWil4J-UMmNJRdzdWiwCng&utm_campaign=yelp_api_v3&utm_medium=api_v3_business_search&utm_source=QWil4J-UMmNJRdzdWiwCng,35.2186079289868,-80.7950378581881,2903 Central Ave,,Charlotte,28205,NC,+19803494015
the-burrito-factory-charlotte,The Burrito Factory,https://www.yelp.com/biz/the-burrito-factory-charlotte?adjust_creative=QWil4J-UMmNJRdzdWiwCng&utm_campaign=yelp_api_v3&utm_medium=api_v3_business_search&utm_source=QWil4J-UMmNJRdzdWiwCng,35.153852,-80.87657,5920 South Blvd,,Charlotte,28217,NC,+19809391828
souly-vegan-cafe-durham-2,Souly Vegan Cafe,https://www.yelp.com/biz/souly-vegan-cafe-durham-2?adjust_creative=QWil4J-UMmNJRdzdWiwCng&utm_campaign=yelp_api_v3&utm_medium=api_v3_business_search&utm_source=QWil4J-UMmNJRdzdWiwCng,35.96801,-78.95989,4125 Durham Chapel Hill Blvd,,Durham,27707,NC,+19842196050
its-a-southern-thing-kitchen-and-bar-durham,It's a Southern thing: Kitchen and Bar,https://www.yelp.com/biz/its-a-southern-thing-kitchen-and-bar-durham?adjust_creative=QWil4J-UMmNJRdzdWiwCng&utm_campaign=yelp_api_v3&utm_medium=api_v3_business_search&utm_source=QWil4J-UMmNJRdzdWiwCng,35.99816,-78.90713,605 W Main St,Ste A,Durham,27701,NC,+19192949632
tacos-nacos-durham-3,Tacos Nacos,https://www.yelp.com/biz/tacos-nacos-durham-3?adjust_creative=QWil4J-UMmNJRdzdWiwCng&utm_campaign=yelp_api_v3&utm_medium=api_v3_business_search&utm_source=QWil4J-UMmNJRdzdWiwCng,35.9667758,-78.945375,3411 University Dr,,Durham,27707,NC,+19192678226
namu-durham,Namu,https://www.yelp.com/biz/namu-durham?adjust_creative=QWil4J-UMmNJRdzdWiwCng&utm_campaign=yelp_api_v3&utm_medium=api_v3_business_search&utm_source=QWil4J-UMmNJRdzdWiwCng,35.95279,-78.99661,5420 Durham-Chapel Hill Blvd,,Durham,27707,NC,+19192519794
only-burger-durham-3,Only Burger,https://www.yelp.com/biz/only-burger-durham-3?adjust_creative=QWil4J-UMmNJRdzdWiwCng&utm_campaign=yelp_api_v3&utm_medium=api_v3_business_search&utm_source=QWil4J-UMmNJRdzdWiwCng,35.99272,-78.90393,359 Blackwell St,,Durham,27701,NC,+19192372431
hog-heaven-bar-b-q-durham-2,Hog Heaven Bar-B-Q,https://www.yelp.com/biz/hog-heaven-bar-b-q-durham-2?adjust_creative=QWil4J-UMmNJRdzdWiwCng&utm_campaign=yelp_api_v3&utm_medium=api_v3_business_search&utm_source=QWil4J-UMmNJRdzdWiwCng,36.0264248474238,-78.9227573598872,2419 Guess Rd,,Durham,27705,NC,+19192867447
bartaco-chapel-hill-chapel-hill,bartaco Chapel Hill,https://www.yelp.com/biz/bartaco-chapel-hill-chapel-hill?adjust_creative=QWil4J-UMmNJRdzdWiwCng&utm_campaign=yelp_api_v3&utm_medium=api_v3_business_search&utm_source=QWil4J-UMmNJRdzdWiwCng,35.927863,-79.026918,201 S Estes Dr,Ste E3,Chapel Hill,27514,NC,+19108078226
sister-lius-kitchen-durham-2,Sister Liu's Kitchen,https://www.yelp.com/biz/sister-lius-kitchen-durham-2?adjust_creative=QWil4J-UMmNJRdzdWiwCng&utm_campaign=yelp_api_v3&utm_medium=api_v3_business_search&utm_source=QWil4J-UMmNJRdzdWiwCng,35.95256,-78.99713,5504 Durham Chapel Hill Blvd,Ste 103,Durham,27707,NC,+19842443973
nuvotaco-durham-2,NuvoTaco,https://www.yelp.com/biz/nuvotaco-durham-2?adjust_creative=QWil4J-UMmNJRdzdWiwCng&utm_campaign=yelp_api_v3&utm_medium=api_v3_business_search&utm_source=QWil4J-UMmNJRdzdWiwCng,35.9744021683087,-78.9245611808775,2512 University Dr,,Durham,27707,NC,+19194898226
mr-as-beignets-apex-2,Mr. A's Beignets,https://www.yelp.com/biz/mr-as-beignets-apex-2?adjust_creative=QWil4J-UMmNJRdzdWiwCng&utm_campaign=yelp_api_v3&utm_medium=api_v3_business_search&utm_source=QWil4J-UMmNJRdzdWiwCng,35.734613,-78.849109,400 N Salem St,,Apex,27502,NC,+19196249209
cook-out-durham-2,Cook Out,https://www.yelp.com/biz/cook-out-durham-2?adjust_creative=QWil4J-UMmNJRdzdWiwCng&utm_campaign=yelp_api_v3&utm_medium=api_v3_business_search&utm_source=QWil4J-UMmNJRdzdWiwCng,36.02339,-78.95495,3624 Hillsborough Rd,,Durham,27705,NC,
chick-fil-a-durham-2,Chick-fil-A,https://www.yelp.com/biz/chick-fil-a-durham-2?adjust_creative=QWil4J-UMmNJRdzdWiwCng&utm_campaign=yelp_api_v3&utm_medium=api_v3_business_search&utm_source=QWil4J-UMmNJRdzdWiwCng,36.0423788,-78.8993858,3912 N Roxboro St,,Durham,27704,NC,+19196200897
heavenly-buffaloes-durham,Heavenly Buffaloes,https://www.yelp.com/biz/heavenly-buffaloes-durham?adjust_creative=QWil4J-UMmNJRdzdWiwCng&utm_campaign=yelp_api_v3&utm_medium=api_v3_business_search&utm_source=QWil4J-UMmNJRdzdWiwCng,36.00966,-78.9203,1807 W Markham Ave,,Durham,27705,NC,+19192372358
boricua-soul-food-truck-durham-6,Boricua Soul Food Truck,https://www.yelp.com/biz/boricua-soul-food-truck-durham-6?adjust_creative=QWil4J-UMmNJRdzdWiwCng&utm_campaign=yelp_api_v3&utm_medium=api_v3_business_search&utm_source=QWil4J-UMmNJRdzdWiwCng,35.9995803833008,-78.9038009643555,,,Durham,27701,NC,+19199020520
picnic-durham-3,Picnic,https://www.yelp.com/biz/picnic-durham-3?adjust_creative=QWil4J-UMmNJRdzdWiwCng&utm_campaign=yelp_api_v3&utm_medium=api_v3_business_search&utm_source=QWil4J-UMmNJRdzdWiwCng,36.0402126158855,-78.9577317232385,1647 Cole Mill Rd,,Durham,27705,NC,+19199089128
sho-nuff-seafood-nc-durham,Sho Nuff Seafood NC,https://www.yelp.com/biz/sho-nuff-seafood-nc-durham?adjust_creative=QWil4J-UMmNJRdzdWiwCng&utm_campaign=yelp_api_v3&utm_medium=api_v3_business_search&utm_source=QWil4J-UMmNJRdzdWiwCng,36.0069027,-78.8859581,518 E Trinity Ave,,Durham,27701,NC,+19193083146
pdq-durham-durham-3,PDQ - Durham,https://www.yelp.com/biz/pdq-durham-durham-3?adjust_creative=QWil4J-UMmNJRdzdWiwCng&utm_campaign=yelp_api_v3&utm_medium=api_v3_business_search&utm_source=QWil4J-UMmNJRdzdWiwCng,35.9528713,-78.9897029,3301 Watkins Rd,,Durham,27707,NC,+19194363753
backyard-bbq-pit-durham,Backyard BBQ Pit,https://www.yelp.com/biz/backyard-bbq-pit-durham?adjust_creative=QWil4J-UMmNJRdzdWiwCng&utm_campaign=yelp_api_v3&utm_medium=api_v3_business_search&utm_source=QWil4J-UMmNJRdzdWiwCng,35.89404,-78.89797,5122 Nc Hwy 55,,Durham,27713,NC,+19195449911
chicken-hut-durham,Chicken Hut,https://www.yelp.com/biz/chicken-hut-durham?adjust_creative=QWil4J-UMmNJRdzdWiwCng&utm_campaign=yelp_api_v3&utm_medium=api_v3_business_search&utm_source=QWil4J-UMmNJRdzdWiwCng,35.9631765,-78.9076094,3019 Fayetteville St,,Durham,27707,NC,+19196825697
earth-to-us-durham,Earth To Us,https://www.yelp.com/biz/earth-to-us-durham?adjust_creative=QWil4J-UMmNJRdzdWiwCng&utm_campaign=yelp_api_v3&utm_medium=api_v3_business_search&utm_source=QWil4J-UMmNJRdzdWiwCng,36.0203544786635,-78.914233068772,1720 Guess Rd,Ste 18,Durham,27701,NC,+19199081000
luna-rotisserie-and-empanadas-durham,Luna Rotisserie and Empanadas,https://www.yelp.com/biz/luna-rotisserie-and-empanadas-durham?adjust_creative=QWil4J-UMmNJRdzdWiwCng&utm_campaign=yelp_api_v3&utm_medium=api_v3_business_search&utm_source=QWil4J-UMmNJRdzdWiwCng,35.99552,-78.90082,112 W Main St,,Durham,27701,NC,+19844398702
kings-sandwich-shop-durham,King's Sandwich Shop,https://www.yelp.com/biz/kings-sandwich-shop-durham?adjust_creative=QWil4J-UMmNJRdzdWiwCng&utm_campaign=yelp_api_v3&utm_medium=api_v3_business_search&utm_source=QWil4J-UMmNJRdzdWiwCng,36.00389,-78.90158,701 Foster St,,Durham,27701,NC,+19196820071
goorsha-durham,Goorsha,https://www.yelp.com/biz/goorsha-durham?adjust_creative=QWil4J-UMmNJRdzdWiwCng&utm_campaign=yelp_api_v3&utm_medium=api_v3_business_search&utm_source=QWil4J-UMmNJRdzdWiwCng,36.00059,-78.90978,910 W Main St,,Durham,27701,NC,+19195884660
deeluxe-chicken-durham-2,Deeluxe Chicken,https://www.yelp.com/biz/deeluxe-chicken-durham-2?adjust_creative=QWil4J-UMmNJRdzdWiwCng&utm_campaign=yelp_api_v3&utm_medium=api_v3_business_search&utm_source=QWil4J-UMmNJRdzdWiwCng,36.016768,-78.91896,1116 Broad St,,Durham,27705,NC,+19192948128
a1-gyro-and-philly-durham,A1 Gyro and Philly,https://www.yelp.com/biz/a1-gyro-and-philly-durham?adjust_creative=QWil4J-UMmNJRdzdWiwCng&utm_campaign=yelp_api_v3&utm_medium=api_v3_business_search&utm_source=QWil4J-UMmNJRdzdWiwCng,35.9911321,-78.9002947,Intersection Of Roxboro And Dillard Streets,,Durham,27701,NC,
fullsteam-brewery-durham,Fullsteam Brewery,https://www.yelp.com/biz/fullsteam-brewery-durham?adjust_creative=QWil4J-UMmNJRdzdWiwCng&utm_campaign=yelp_api_v3&utm_medium=api_v3_business_search&utm_source=QWil4J-UMmNJRdzdWiwCng,36.0031355533379,-78.8998214192479,726 Rigsbee Ave,,Durham,27701,NC,+19196822337
sho-nuff-seafood-durham,Sho Nuff Seafood,https://www.yelp.com/biz/sho-nuff-seafood-durham?adjust_creative=QWil4J-UMmNJRdzdWiwCng&utm_campaign=yelp_api_v3&utm_medium=api_v3_business_search&utm_source=QWil4J-UMmNJRdzdWiwCng,36.01705,-78.90898,1058 W Club Blvd,Ste 528,Durham,27701,NC,+19199729212
only-burger-durham-2,Only Burger,https://www.yelp.com/biz/only-burger-durham-2?adjust_creative=QWil4J-UMmNJRdzdWiwCng&utm_campaign=yelp_api_v3&utm_medium=api_v3_business_search&utm_source=QWil4J-UMmNJRdzdWiwCng,35.9562,-78.95608,3710 Shannon Rd,Ste 118,Durham,27707,NC,+19199379377
shake-shack-cary,Shake Shack,https://www.yelp.com/biz/shake-shack-cary?adjust_creative=QWil4J-UMmNJRdzdWiwCng&utm_campaign=yelp_api_v3&utm_medium=api_v3_business_search&utm_source=QWil4J-UMmNJRdzdWiwCng,35.7396001866604,-78.7782829,310 Colonades Way,,Cary,27518,NC,
m-pocha-durham-2,M Pocha,https://www.yelp.com/biz/m-pocha-durham-2?adjust_creative=QWil4J-UMmNJRdzdWiwCng&utm_campaign=yelp_api_v3&utm_medium=api_v3_business_search&utm_source=QWil4J-UMmNJRdzdWiwCng,35.997056,-78.903781,101 E Chapel Hill St,,Durham,27701,NC,
tasty-stop-durham-3,Tasty Stop,https://www.yelp.com/biz/tasty-stop-durham-3?adjust_creative=QWil4J-UMmNJRdzdWiwCng&utm_campaign=yelp_api_v3&utm_medium=api_v3_business_search&utm_source=QWil4J-UMmNJRdzdWiwCng,36.048587,-78.90488,3600 N Duke St,Ste 39B,Durham,27704,NC,+19194779255
itaewon-grill-durham,Itaewon Grill,https://www.yelp.com/biz/itaewon-grill-durham?adjust_creative=QWil4J-UMmNJRdzdWiwCng&utm_campaign=yelp_api_v3&utm_medium=api_v3_business_search&utm_source=QWil4J-UMmNJRdzdWiwCng,36.00955,-78.94488,2608 Erwin Rd,Ste 132,Durham,27705,NC,+19198649742
kokyu-namean-durham-4,KoKyu Na'Mean,https://www.yelp.com/biz/kokyu-namean-durham-4?adjust_creative=QWil4J-UMmNJRdzdWiwCng&utm_campaign=yelp_api_v3&utm_medium=api_v3_business_search&utm_source=QWil4J-UMmNJRdzdWiwCng,35.8986,-78.89447,4823 Meadow Dr,Ste 108,Durham,27713,NC,+19196994667
jack-tar-and-the-colonels-daughter-durham,Jack Tar and the Colonel's Daughter,https://www.yelp.com/biz/jack-tar-and-the-colonels-daughter-durham?adjust_creative=QWil4J-UMmNJRdzdWiwCng&utm_campaign=yelp_api_v3&utm_medium=api_v3_business_search&utm_source=QWil4J-UMmNJRdzdWiwCng,35.99654,-78.90102,202 Corcoran St,,Durham,27701,NC,+19196825225
the-original-q-shack-durham,The Original Q Shack,https://www.yelp.com/biz/the-original-q-shack-durham?adjust_creative=QWil4J-UMmNJRdzdWiwCng&utm_campaign=yelp_api_v3&utm_medium=api_v3_business_search&utm_source=QWil4J-UMmNJRdzdWiwCng,35.9746224913648,-78.9243817295098,2510 University Dr,,Durham,27707,NC,+19194024227
zwelis-durham,Zweli's,https://www.yelp.com/biz/zwelis-durham?adjust_creative=QWil4J-UMmNJRdzdWiwCng&utm_campaign=yelp_api_v3&utm_medium=api_v3_business_search&utm_source=QWil4J-UMmNJRdzdWiwCng,35.9624623721816,-78.9792852848768,4600 Durham Chapel Hill Blvd,Ste 26,Durham,27707,NC,+19842197555
bull-city-burger-and-brewery-durham,Bull City Burger and Brewery,https://www.yelp.com/biz/bull-city-burger-and-brewery-durham?adjust_creative=QWil4J-UMmNJRdzdWiwCng&utm_campaign=yelp_api_v3&utm_medium=api_v3_business_search&utm_source=QWil4J-UMmNJRdzdWiwCng,35.9954377,-78.8999432,107 E Parrish St,,Durham,27701,NC,+19196802333
dames-chicken-and-waffles-durham,Dame's Chicken & Waffles,https://www.yelp.com/biz/dames-chicken-and-waffles-durham?adjust_creative=QWil4J-UMmNJRdzdWiwCng&utm_campaign=yelp_api_v3&utm_medium=api_v3_business_search&utm_source=QWil4J-UMmNJRdzdWiwCng,36.001813,-78.901291,530 Foster St,Unit 103,Durham,27701,NC,+19196829235
shanghai-durham,Shanghai,https://www.yelp.com/biz/shanghai-durham?adjust_creative=QWil4J-UMmNJRdzdWiwCng&utm_campaign=yelp_api_v3&utm_medium=api_v3_business_search&utm_source=QWil4J-UMmNJRdzdWiwCng,36.0195033,-78.9469968,3433 Hillsborough Rd,,Durham,27705,NC,+19193835700
durham-catering-company-durham-2,Durham Catering Company,https://www.yelp.com/biz/durham-catering-company-durham-2?adjust_creative=QWil4J-UMmNJRdzdWiwCng&utm_campaign=yelp_api_v3&utm_medium=api_v3_business_search&utm_source=QWil4J-UMmNJRdzdWiwCng,35.9562,-78.95608,3710 Shannon Rd,Ste 117,Durham,27707,NC,+19193833000
lime-and-lemon-indian-grill-durham,Lime and Lemon Indian Grill,https://www.yelp.com/biz/lime-and-lemon-indian-grill-durham?adjust_creative=QWil4J-UMmNJRdzdWiwCng&utm_campaign=yelp_api_v3&utm_medium=api_v3_business_search&utm_source=QWil4J-UMmNJRdzdWiwCng,36.01101,-78.9228,811 9th St,Ste 150,Durham,27705,NC,+19197483456
silver-spoon-durham,Silver Spoon,https://www.yelp.com/biz/silver-spoon-durham?adjust_creative=QWil4J-UMmNJRdzdWiwCng&utm_campaign=yelp_api_v3&utm_medium=api_v3_business_search&utm_source=QWil4J-UMmNJRdzdWiwCng,36.07326,-78.90837,5230 N Roxboro Rd,,Durham,27712,NC,+19194797172
spanglish-durham-2,Spanglish,https://www.yelp.com/biz/spanglish-durham-2?adjust_creative=QWil4J-UMmNJRdzdWiwCng&utm_campaign=yelp_api_v3&utm_medium=api_v3_business_search&utm_source=QWil4J-UMmNJRdzdWiwCng,35.9957585318163,-78.8994020596147,104 City Hall Plz,Ste 101,Durham,27701,NC,+19842695099
cucciolo-osteria-durham-3,Cucciolo Osteria,https://www.yelp.com/biz/cucciolo-osteria-durham-3?adjust_creative=QWil4J-UMmNJRdzdWiwCng&utm_campaign=yelp_api_v3&utm_medium=api_v3_business_search&utm_source=QWil4J-UMmNJRdzdWiwCng,35.99762,-78.90621,601 W Main St,Ste C,Durham,27701,NC,+19842438744
philly-steak-factory-durham,Philly Steak Factory,https://www.yelp.com/biz/philly-steak-factory-durham?adjust_creative=QWil4J-UMmNJRdzdWiwCng&utm_campaign=yelp_api_v3&utm_medium=api_v3_business_search&utm_source=QWil4J-UMmNJRdzdWiwCng,35.9546612345134,-78.9959249264615,5410 New Hope Commons Dr,,Durham,27709,NC,+19194909753
nosh-durham,Nosh,https://www.yelp.com/biz/nosh-durham?adjust_creative=QWil4J-UMmNJRdzdWiwCng&utm_campaign=yelp_api_v3&utm_medium=api_v3_business_search&utm_source=QWil4J-UMmNJRdzdWiwCng,36.007468,-78.9472,2812 Erwin Rd,Ste 101,Durham,27705,NC,+19193834747
sunrise-biscuit-kitchen-chapel-hill,Sunrise Biscuit Kitchen,https://www.yelp.com/biz/sunrise-biscuit-kitchen-chapel-hill?adjust_creative=QWil4J-UMmNJRdzdWiwCng&utm_campaign=yelp_api_v3&utm_medium=api_v3_business_search&utm_source=QWil4J-UMmNJRdzdWiwCng,35.92757,-79.0355,1305 E Franklin St,,Chapel Hill,27514,NC,+19199331324
cook-out-durham-6,Cook Out,https://www.yelp.com/biz/cook-out-durham-6?adjust_creative=QWil4J-UMmNJRdzdWiwCng&utm_campaign=yelp_api_v3&utm_medium=api_v3_business_search&utm_source=QWil4J-UMmNJRdzdWiwCng,35.9668389568632,-78.9545378834009,3119 Shannon Rd,,Durham,27707,NC,+19198648634
pupuseria-y-taqueria-orellana-durham,Pupuseria y Taqueria Orellana,https://www.yelp.com/biz/pupuseria-y-taqueria-orellana-durham?adjust_creative=QWil4J-UMmNJRdzdWiwCng&utm_campaign=yelp_api_v3&utm_medium=api_v3_business_search&utm_source=QWil4J-UMmNJRdzdWiwCng,36.07763,-78.90968,5300 N Roxboro Rd,,Durham,27712,NC,+19194713299
popeyes-louisiana-kitchen-durham,Popeyes Louisiana Kitchen,https://www.yelp.com/biz/popeyes-louisiana-kitchen-durham?adjust_creative=QWil4J-UMmNJRdzdWiwCng&utm_campaign=yelp_api_v3&utm_medium=api_v3_business_search&utm_source=QWil4J-UMmNJRdzdWiwCng,36.029705,-78.927234,2723 Guess Rd,,Durham,27705,NC,+19193814555
